[{"OBJECT_NAME":"STARLINK-34345","OBJECT_ID":"2025-112H","EPOCH":"2026-03-09T17:15:00.035424","MEAN_MOTION":15.05657866,"ECCENTRICITY":0.00010955,"INCLINATION":97.602,"RA_OF_ASC_NODE":121.5609,"ARG_OF_PERICENTER":137.5756,"MEAN_ANOMALY":222.5555,"EPHEMERIS_TYPE":0,"CLASSIFICATION_TYPE":"U","NORAD_CAT_ID":64153,"ELEMENT_SET_NO":999,"REV_AT_EPOCH":4331,"BSTAR":0.00038783204,"MEAN_MOTION_DOT":5.541e-5,"MEAN_MOTION_DDOT":0},{"OBJECT_NAME":"COSMOS 1275 DEB","OBJECT_ID":"1981-053RH","EPOCH":"2026-03-08T19:02:02.535360","MEAN_MOTION":15.08606043,"ECCENTRICITY":0.00097404,"INCLINATION":83.3308,"RA_OF_ASC_NODE":196.5935,"ARG_OF_PERICENTER":282.896,"MEAN_ANOMALY":77.1182,"EPHEMERIS_TYPE":0,"CLASSIFICATION_TYPE":"U","NORAD_CAT_ID":42145,"ELEMENT_SET_NO":999,"REV_AT_EPOCH":64889,"BSTAR":0.0090120528,"MEAN_MOTION_DOT":0.00143721,"MEAN_MOTION_DDOT":0}]
